start=new Date('2021-11-17T00:00:00.000Z').valueOf();
sats=[{"TLE_LINE1":"1 45224U 20012AY  21320.79565083 -.00000955  00000-0 -32740-5 0  9995","EPHEMERIS_TYPE":"0","DECAY_DATE":null,"MEAN_MOTION":"15.67961847","OBJECT_ID":"2020-012AY","LAUNCH_DATE":"2020-02-17","ECCENTRICITY":"0.00078920","RCS_SIZE":"LARGE","ARG_OF_PERICENTER":"309.1137","REV_AT_EPOCH":"9824","OBJECT_TYPE":"PAYLOAD","COUNTRY_CODE":"US","PERIOD":"91.839","NORAD_CAT_ID":"45224","MEAN_ELEMENT_THEORY":"SGP4","EPOCH":"2021-11-16T19:05:44.231712","TIME_SYSTEM":"UTC","CENTER_NAME":"EARTH","RA_OF_ASC_NODE":"159.1506","SITE":"AFETR","GP_ID":"189889892","ELEMENT_SET_NO":"999","OBJECT_NAME":"STARLINK-1214","MEAN_MOTION_DDOT":"0.0000000000000","PERIAPSIS":"359.414","SEMIMAJOR_AXIS":"6742.871","INCLINATION":"53.0483","APOAPSIS":"370.057","CLASSIFICATION_TYPE":"U","REF_FRAME":"TEME","BSTAR":"-0.00000327400000","MEAN_ANOMALY":"50.9176","FILE":"3217117","TLE_LINE2":"2 45224  53.0483 159.1506 0007892 309.1137  50.9176 15.67961847 98244","MEAN_MOTION_DOT":"-0.00000955"},{"NORAD_CAT_ID":"45225","PERIOD":"95.592","REV_AT_EPOCH":"9723","COUNTRY_CODE":"US","OBJECT_TYPE":"PAYLOAD","ARG_OF_PERICENTER":"66.8177","CENTER_NAME":"EARTH","TIME_SYSTEM":"UTC","EPOCH":"2021-11-16T18:07:48.796896","MEAN_ELEMENT_THEORY":"SGP4","OBJECT_NAME":"STARLINK-1215","MEAN_MOTION_DDOT":"0.0000000000000","PERIAPSIS":"545.916","ELEMENT_SET_NO":"999","GP_ID":"189889901","RA_OF_ASC_NODE":"232.2764","SITE":"AFETR","TLE_LINE2":"2 45225  53.0542 232.2764 0001887  66.8177 293.3011 15.06397016 97232","MEAN_MOTION_DOT":"0.00000072","BSTAR":"0.00002377000000","REF_FRAME":"TEME","MEAN_ANOMALY":"293.3011","FILE":"3217117","CLASSIFICATION_TYPE":"U","SEMIMAJOR_AXIS":"6925.358","APOAPSIS":"548.530","INCLINATION":"53.0542","EPHEMERIS_TYPE":"0","TLE_LINE1":"1 45225U 20012AZ  21320.75542589  .00000072  00000-0  23770-4 0  9998","MEAN_MOTION":"15.06397016","DECAY_DATE":null,"ECCENTRICITY":"0.00018870","RCS_SIZE":"LARGE","LAUNCH_DATE":"2020-02-17","OBJECT_ID":"2020-012AZ"},{"EPHEMERIS_TYPE":"0","TLE_LINE1":"1 45226U 20012BA  21320.49740138  .00002605  00000-0  19369-3 0  9992","MEAN_MOTION":"15.06410724","DECAY_DATE":null,"ECCENTRICITY":"0.00018810","RCS_SIZE":"LARGE","LAUNCH_DATE":"2020-02-17","OBJECT_ID":"2020-012BA","NORAD_CAT_ID":"45226","PERIOD":"95.591","REV_AT_EPOCH":"9804","OBJECT_TYPE":"PAYLOAD","COUNTRY_CODE":"US","ARG_OF_PERICENTER":"69.5998","TIME_SYSTEM":"UTC","CENTER_NAME":"EARTH","EPOCH":"2021-11-16T11:56:15.479232","MEAN_ELEMENT_THEORY":"SGP4","OBJECT_NAME":"STARLINK-1217","MEAN_MOTION_DDOT":"0.0000000000000","PERIAPSIS":"545.878","ELEMENT_SET_NO":"999","GP_ID":"189880099","RA_OF_ASC_NODE":"233.4399","SITE":"AFETR","TLE_LINE2":"2 45226  53.0545 233.4399 0001881  69.5998 290.5193 15.06410724 98040","MEAN_MOTION_DOT":"0.00002605","REF_FRAME":"TEME","BSTAR":"0.00019369000000","MEAN_ANOMALY":"290.5193","FILE":"3216827","CLASSIFICATION_TYPE":"U","SEMIMAJOR_AXIS":"6925.316","APOAPSIS":"548.483","INCLINATION":"53.0545"},{"EPHEMERIS_TYPE":"0","TLE_LINE1":"1 45227U 20012BB  21320.45317493 -.00000205  00000-0  51362-5 0  9999","MEAN_MOTION":"15.06397864","DECAY_DATE":null,"RCS_SIZE":"LARGE","ECCENTRICITY":"0.00018350","OBJECT_ID":"2020-012BB","LAUNCH_DATE":"2020-02-17","PERIOD":"95.592","NORAD_CAT_ID":"45227","ARG_OF_PERICENTER":"65.7026","COUNTRY_CODE":"US","OBJECT_TYPE":"PAYLOAD","REV_AT_EPOCH":"9804","EPOCH":"2021-11-16T10:52:34.313952","TIME_SYSTEM":"UTC","CENTER_NAME":"EARTH","MEAN_ELEMENT_THEORY":"SGP4","MEAN_MOTION_DDOT":"0.0000000000000","PERIAPSIS":"545.949","OBJECT_NAME":"STARLINK-1221","SITE":"AFETR","RA_OF_ASC_NODE":"233.6498","ELEMENT_SET_NO":"999","GP_ID":"189878847","MEAN_ANOMALY":"294.4154","FILE":"3216827","BSTAR":"0.00000513620000","REF_FRAME":"TEME","MEAN_MOTION_DOT":"-0.00000205","TLE_LINE2":"2 45227  53.0534 233.6498 0001835  65.7026 294.4154 15.06397864 98049","APOAPSIS":"548.491","INCLINATION":"53.0534","SEMIMAJOR_AXIS":"6925.355","CLASSIFICATION_TYPE":"U"},{"TLE_LINE1":"1 45228U 20012BC  21320.45686316 -.00000424  00000-0 -95430-5 0  9991","EPHEMERIS_TYPE":"0","DECAY_DATE":null,"MEAN_MOTION":"15.06398097","LAUNCH_DATE":"2020-02-17","OBJECT_ID":"2020-012BC","ECCENTRICITY":"0.00017840","RCS_SIZE":"LARGE","REV_AT_EPOCH":"9801","OBJECT_TYPE":"PAYLOAD","COUNTRY_CODE":"US","ARG_OF_PERICENTER":"73.5364","NORAD_CAT_ID":"45228","PERIOD":"95.592","MEAN_ELEMENT_THEORY":"SGP4","TIME_SYSTEM":"UTC","CENTER_NAME":"EARTH","EPOCH":"2021-11-16T10:57:52.977024","GP_ID":"189879091","ELEMENT_SET_NO":"999","RA_OF_ASC_NODE":"233.6199","SITE":"AFETR","OBJECT_NAME":"STARLINK-1222","PERIAPSIS":"545.984","MEAN_MOTION_DDOT":"0.0000000000000","CLASSIFICATION_TYPE":"U","SEMIMAJOR_AXIS":"6925.354","INCLINATION":"53.0546","APOAPSIS":"548.455","TLE_LINE2":"2 45228  53.0546 233.6199 0001784  73.5364 286.5821 15.06398097 98015","MEAN_MOTION_DOT":"-0.00000424","BSTAR":"-0.00000954300000","REF_FRAME":"TEME","MEAN_ANOMALY":"286.5821","FILE":"3216827"},{"TLE_LINE1":"1 45229U 20012BD  21320.48634381  .00001529  00000-0  12152-3 0  9993","EPHEMERIS_TYPE":"0","DECAY_DATE":null,"MEAN_MOTION":"15.06399598","OBJECT_ID":"2020-012BD","LAUNCH_DATE":"2020-02-17","RCS_SIZE":"LARGE","ECCENTRICITY":"0.00016780","ARG_OF_PERICENTER":"64.4882","OBJECT_TYPE":"PAYLOAD","COUNTRY_CODE":"US","REV_AT_EPOCH":"9802","PERIOD":"95.592","NORAD_CAT_ID":"45229","MEAN_ELEMENT_THEORY":"SGP4","EPOCH":"2021-11-16T11:40:20.105184","TIME_SYSTEM":"UTC","CENTER_NAME":"EARTH","SITE":"AFETR","RA_OF_ASC_NODE":"233.4839","GP_ID":"189879849","ELEMENT_SET_NO":"999","PERIAPSIS":"546.053","MEAN_MOTION_DDOT":"0.0000000000000","OBJECT_NAME":"STARLINK-1226","APOAPSIS":"548.377","INCLINATION":"53.0556","SEMIMAJOR_AXIS":"6925.350","CLASSIFICATION_TYPE":"U","FILE":"3216827","MEAN_ANOMALY":"295.6280","BSTAR":"0.00012152000000","REF_FRAME":"TEME","MEAN_MOTION_DOT":"0.00001529","TLE_LINE2":"2 45229  53.0556 233.4839 0001678  64.4882 295.6280 15.06399598 98020"},{"ELEMENT_SET_NO":"999","GP_ID":"189880600","SITE":"AFETR","RA_OF_ASC_NODE":"233.5063","MEAN_MOTION_DDOT":"0.0000000000000","PERIAPSIS":"546.031","OBJECT_NAME":"STARLINK-1227","CLASSIFICATION_TYPE":"U","INCLINATION":"53.0541","APOAPSIS":"548.428","SEMIMAJOR_AXIS":"6925.364","MEAN_MOTION_DOT":"0.00000008","TLE_LINE2":"2 45230  53.0541 233.5063 0001731  76.4950 283.6232 15.06394800 98143","MEAN_ANOMALY":"283.6232","FILE":"3216827","BSTAR":"0.00001945200000","REF_FRAME":"TEME","COUNTRY_CODE":"US","OBJECT_TYPE":"PAYLOAD","REV_AT_EPOCH":"9814","ARG_OF_PERICENTER":"76.4950","NORAD_CAT_ID":"45230","PERIOD":"95.592","MEAN_ELEMENT_THEORY":"SGP4","CENTER_NAME":"EARTH","TIME_SYSTEM":"UTC","EPOCH":"2021-11-16T11:35:02.660352","LAUNCH_DATE":"2020-02-17","OBJECT_ID":"2020-012BE","RCS_SIZE":"LARGE","ECCENTRICITY":"0.00017310","TLE_LINE1":"1 45230U 20012BE  21320.48266968  .00000008  00000-0  19452-4 0  9999","EPHEMERIS_TYPE":"0","DECAY_DATE":null,"MEAN_MOTION":"15.06394800"},{"MEAN_ELEMENT_THEORY":"SGP4","CENTER_NAME":"EARTH","TIME_SYSTEM":"UTC","EPOCH":"2021-11-16T14:12:01.387008","REV_AT_EPOCH":"9896","COUNTRY_CODE":"US","OBJECT_TYPE":"PAYLOAD","ARG_OF_PERICENTER":"342.1470","NORAD_CAT_ID":"45231","PERIOD":"91.531","CLASSIFICATION_TYPE":"U","SEMIMAJOR_AXIS":"6727.810","APOAPSIS":"352.775","INCLINATION":"53.0304","TLE_LINE2":"2 45231  53.0304 165.5366 0004608 342.1470  17.9385 15.73229982 98966","MEAN_MOTION_DOT":"0.00024335","REF_FRAME":"TEME","BSTAR":"0.00017698000000","MEAN_ANOMALY":"17.9385","FILE":"3216827","GP_ID":"189879348","ELEMENT_SET_NO":"999","RA_OF_ASC_NODE":"165.5366","SITE":"AFETR","OBJECT_NAME":"STARLINK-1229","PERIAPSIS":"346.575","MEAN_MOTION_DDOT":"0.0000000000000","DECAY_DATE":null,"MEAN_MOTION":"15.73229982","TLE_LINE1":"1 45231U 20012BF  21320.59168272  .00024335  00000-0  17698-3 0  9999","EPHEMERIS_TYPE":"0","LAUNCH_DATE":"2020-02-17","OBJECT_ID":"2020-012BF","ECCENTRICITY":"0.00046080","RCS_SIZE":"LARGE"},{"RCS_SIZE":"LARGE","ECCENTRICITY":"0.00017060","OBJECT_ID":"2020-012BG","LAUNCH_DATE":"2020-02-17","MEAN_MOTION":"15.06397406","DECAY_DATE":null,"EPHEMERIS_TYPE":"0","TLE_LINE1":"1 45232U 20012BG  21320.49372435 -.00000341  00000-0 -39709-5 0  9999","FILE":"3216827","MEAN_ANOMALY":"288.3166","REF_FRAME":"TEME","BSTAR":"-0.00000397090000","MEAN_MOTION_DOT":"-0.00000341","TLE_LINE2":"2 45232  53.0543 233.4550 0001706  71.8008 288.3166 15.06397406 98134","INCLINATION":"53.0543","APOAPSIS":"548.403","SEMIMAJOR_AXIS":"6925.357","CLASSIFICATION_TYPE":"U","MEAN_MOTION_DDOT":"0.0000000000000","PERIAPSIS":"546.040","OBJECT_NAME":"STARLINK-1235","SITE":"AFETR","RA_OF_ASC_NODE":"233.4550","GP_ID":"189879592","ELEMENT_SET_NO":"999","EPOCH":"2021-11-16T11:50:57.783840","CENTER_NAME":"EARTH","TIME_SYSTEM":"UTC","MEAN_ELEMENT_THEORY":"SGP4","PERIOD":"95.592","NORAD_CAT_ID":"45232","ARG_OF_PERICENTER":"71.8008","COUNTRY_CODE":"US","OBJECT_TYPE":"PAYLOAD","REV_AT_EPOCH":"9813"},{"PERIOD":"95.591","NORAD_CAT_ID":"45233","ARG_OF_PERICENTER":"68.4304","REV_AT_EPOCH":"9784","COUNTRY_CODE":"US","OBJECT_TYPE":"PAYLOAD","EPOCH":"2021-11-16T12:57:19.097568","CENTER_NAME":"EARTH","TIME_SYSTEM":"UTC","MEAN_ELEMENT_THEORY":"SGP4","OBJECT_NAME":"STARLINK-1238","MEAN_MOTION_DDOT":"0.0000000000000","PERIAPSIS":"545.748","RA_OF_ASC_NODE":"253.2448","SITE":"AFETR","GP_ID":"189880350","ELEMENT_SET_NO":"999","BSTAR":"0.00029717000000","REF_FRAME":"TEME","MEAN_ANOMALY":"291.6904","FILE":"3216827","TLE_LINE2":"2 45233  53.0549 253.2448 0002052  68.4304 291.6904 15.06414594 97845","MEAN_MOTION_DOT":"0.00004149","SEMIMAJOR_AXIS":"6925.304","INCLINATION":"53.0549","APOAPSIS":"548.590","CLASSIFICATION_TYPE":"U","EPHEMERIS_TYPE":"0","TLE_LINE1":"1 45233U 20012BH  21320.53980437  .00004149  00000-0  29717-3 0  9996","MEAN_MOTION":"15.06414594","DECAY_DATE":null,"ECCENTRICITY":"0.00020520","RCS_SIZE":"LARGE","OBJECT_ID":"2020-012BH","LAUNCH_DATE":"2020-02-17"}];
